296P/Garradd,e,25.3035,263.5179,349.9067,3.487987,0.1513010,0.48026060,192.9653,03/16.0/2024,2000,g 14.0,4.0
# From MPC102956
297P/Beshore,e,10.6327,94.2806,138.9438,3.502531,0.1503595,0.31434339,171.0155,03/16.0/2024,2000,g 15.0,4.0
# From MPC114609
298P/Christensen,e,7.8707,52.8062,100.5940,3.589304,0.1449402,0.38641498,186.5899,03/16.0/2024,2000,g 15.0,4.0
# From MPEC 2024-EF7
299P/Catalina-PANSTARRS,e,10.4678,271.5832,323.6934,4.389619,0.1071677,0.28094904,355.1362,03/16.0/2024,2000,g 11.5,4.0
# From MPEC 2023-VM5
300P/Catalina,e,5.6755,95.6172,222.9278,2.697725,0.2224373,0.69176183,75.6044,03/16.0/2024,2000,g 16.0,4.0
# From MPC 89014
301P/LINEAR-NEAT,e,10.3322,351.0802,193.5071,5.745983,0.0715579,0.58579654,250.8916,03/16.0/2024,2000,g 13.0,4.0
# From MPEC 2023-N01
302P/Lemmon-PANSTARRS,e,6.0345,121.7155,208.5988,4.270482,0.1116834,0.22990020,319.9929,03/16.0/2024,2000,g 12.5,4.0
# From MPC 92278
303P/NEAT,e,7.0172,347.9782,357.0025,5.041766,0.0870623,0.51060979,298.5555,03/16.0/2024,2000,g 13.5,4.0
# From MPEC 2022-K19
304P/Ory,e,2.6064,58.9408,335.2588,3.150403,0.1762604,0.60099965,230.9748,03/16.0/2024,2000,g 16.5,4.0
# From MPC101100
305P/Skiff,e,11.6669,240.1475,147.3722,4.636258,0.0987308,0.69399128,335.7008,03/16.0/2024,2000,g 18.0,4.0
# From MPC 92278
306P/LINEAR,e,8.3049,341.3719,0.8915,3.124483,0.1784583,0.59278413,270.1329,03/16.0/2024,2000,g 19.0,4.0
# From MPC 92278
307P/LINEAR,e,4.4366,158.1671,222.1964,5.788214,0.0707762,0.67547490,238.1852,03/16.0/2024,2000,g 15.0,4.0
# From MPEC 2022-C56
308P/Lagerkvist-Carsenty,e,4.8533,63.0962,333.6985,6.599534,0.0581345,0.36469369,187.6927,03/16.0/2024,2000,g 13.0,2.0
# From MPEC 2024-BE0
309P/LINEAR,e,17.0218,10.1432,49.9136,4.376981,0.1076322,0.61851762,358.6007,03/16.0/2024,2000,g 15.0,4.0
# From MPEC 2024-EF7
310P/Hill,e,13.1195,8.9010,31.5699,4.185670,0.1150950,0.42267782,16.6335,03/16.0/2024,2000,g 13.5,4.0
# From MPEC 2024-A43
311P/PANSTARRS,e,4.9710,279.1716,144.2448,2.188575,0.3044121,0.11577327,22.5672,03/16.0/2024,2000,g 17.0,4.0
# From MPEC 2021-BE3
312P/NEAT,e,19.7582,144.7003,207.6611,3.471053,0.1524095,0.42719341,193.2615,03/16.0/2024,2000,g 16.0,4.0
# From MPEC 2021-S45
313P/Gibbs,e,10.9807,105.9996,254.8674,3.164198,0.1751090,0.23473683,250.2989,03/16.0/2024,2000,g 15.0,4.0
# From MPC105243
314P/Montani,e,3.9903,267.6152,213.8531,7.252297,0.0504650,0.41775965,136.9680,03/16.0/2024,2000,g  9.5,4.0
# From MPEC 2023-J29
315P/LONEOS,e,17.7322,68.6994,65.8014,4.938882,0.0897968,0.52152352,239.5805,03/16.0/2024,2000,g 11.0,4.0
# From MPC 92279
316P/LONEOS-Christensen,e,9.7952,192.1768,242.9564,4.423249,0.1059478,0.15879474,336.8827,03/16.0/2024,2000,g 13.5,4.0
# From MPEC 2020-C98
317P/WISE,e,11.9667,275.4661,334.8256,2.961274,0.1934132,0.57134099,245.0854,03/16.0/2024,2000,g 17.5,4.0
# From MPC102103
318P/McNaught-Hartley,e,17.8746,35.5632,313.3254,7.509899,0.0478909,0.67431994,146.7577,03/16.0/2024,2000,g  8.5,6.0
# From MPC 97499
319P/Catalina-McNaught,e,15.0941,111.3455,203.6584,3.563667,0.1465070,0.66632831,104.8741,03/16.0/2024,2000,g 15.0,4.0
# From MPC 96281
320P/McNaught,e,4.9035,295.9417,0.7790,3.095036,0.1810113,0.68484740,209.0224,03/16.0/2024,2000,g 20.5,4.0
# From MPC105243
321P/SOHO,e,20.0783,165.0115,172.7501,2.422372,0.2614223,0.98105521,0.0000,10/26.6081/2023,2000,g 20.0,4.0
# From MPC102103
322P/SOHO,e,11.4708,351.4960,56.9212,2.508095,0.2481351,0.97998128,0.0000,08/21.0911/2023,2000,g 19.0,4.0
# From MPEC 2023-XP6
323P/SOHO,e,5.3310,324.2799,353.1303,2.583477,0.2373543,0.98462874,0.0000,03/14.3085/2025,2000,g 20.0,4.0
# From MPEC 2021-W31
324P/LaSagra,e,21.3995,270.5772,57.5454,3.095684,0.1809544,0.15321411,189.3696,03/16.0/2024,2000,g 13.0,4.0
# From MPEC 2022-TA0
325P/Yang-Gao,e,16.7952,257.1070,344.6194,3.543092,0.1477850,0.59128748,106.1942,03/16.0/2024,2000,g 14.0,4.0
# From MPEC 2023-XP6
326P/Hill,e,2.4712,99.7874,278.6326,4.070176,0.1200285,0.31951717,9.2023,03/16.0/2024,2000,g 13.5,4.0
# From MPEC 2024-A43
327P/VanNess,e,36.2469,173.9895,185.0361,3.562269,0.1465932,0.56294517,82.1959,03/16.0/2024,2000,g 16.0,4.0
# From MPC109148
328P/LONEOS-Tucker,e,17.6756,341.6511,30.6097,4.188019,0.1149982,0.55266452,344.5927,03/16.0/2024,2000,g 14.5,4.0
# From MPC101101
329P/LINEAR-Catalina,e,21.7132,87.6857,343.5560,5.185366,0.0834709,0.67875022,252.4540,03/16.0/2024,2000,g 13.5,4.0
# From MPEC 2023-J29
330P/Catalina,e,15.7276,293.0794,188.8196,6.618336,0.0578870,0.54980310,159.6217,03/16.0/2024,2000,g 12.0,4.0
# From MPEC 2023-KD6
331P/Gibbs,e,9.7402,216.7518,184.9612,3.004380,0.1892656,0.04148698,237.8141,03/16.0/2024,2000,g 12.0,4.0
# From MPEC 2016-K18
332P/Ikeya-Murakami,e,9.3821,3.7608,152.2910,3.086894,0.1817278,0.48942563,170.9694,03/16.0/2024,2000,g 18.0,4.0
# From MPEC 2016-K18
332P-A/Ikeya-Murakami,e,9.3826,152.3094,3.7426,3.086889,0.1817283,0.48942948,170.9689,03/16.0/2024,2000,g  9.0,4.0
# From MPEC 2016-EI8
332P-B/Ikeya-Murakami,e,9.3805,3.8028,152.3711,3.082329,0.1821317,0.48970701,359.9699,03/17.0/2016,2000,g 19.0,4.0
# From MPEC 2016-K18
332P-C/Ikeya-Murakami,e,9.3816,152.3007,3.7430,3.086856,0.1817312,0.48943504,170.9859,03/16.0/2024,2000,g 16.5,4.0
# From MPEC 2016-ED0
332P-D/Ikeya-Murakami,e,9.3761,3.7923,152.4393,3.081138,0.1822373,0.48977814,359.9486,03/17.0/2016,2000,g 19.0,4.0
# From MPEC 2016-ED0
332P-E/Ikeya-Murakami,e,9.3774,3.8228,152.2825,3.079877,0.1823493,0.48922008,359.9889,03/17.0/2016,2000,g 21.0,4.0
# From MPEC 2016-ED0
332P-F/Ikeya-Murakami,e,9.5293,3.4757,152.8203,3.163214,0.1751908,0.49918860,359.8501,03/17.0/2016,2000,g 21.0,4.0
# From MPEC 2016-ED0
332P-G/Ikeya-Murakami,e,9.2523,3.6955,154.4000,3.050519,0.1849880,0.49200362,359.9006,03/19.0/2016,2000,g 19.0,4.0
# From MPC100285
332P-H/Ikeya-Murakami,e,9.3822,152.3014,3.7427,3.087037,0.1817152,0.48947067,170.9056,03/16.0/2024,2000,g 19.0,4.0
# From MPEC 2016-ED0
332P-I/Ikeya-Murakami,e,9.3791,3.8048,152.3297,3.081767,0.1821815,0.48955490,359.9360,03/17.0/2016,2000,g 20.5,2.0
# From MPEC 2016-EI8
332P-J/Ikeya-Murakami,e,9.4296,3.6729,152.7712,3.115165,0.1792596,0.49429435,359.8613,03/17.0/2016,2000,g 20.5,2.0
# From MPEC 2024-EF7
333P/LINEAR,e,132.0220,115.7009,26.0084,4.220818,0.1136604,0.73629592,330.6418,03/16.0/2024,2000,g 15.0,4.0
# From MPEC 2023-J29
334P/NEAT,e,20.3769,90.4883,90.0410,6.830326,0.0552131,0.35102056,136.8173,03/16.0/2024,2000,g 10.5,4.0
# From MPEC 2023-M14
335P/Gibbs,e,7.2937,330.8204,162.2990,3.577846,0.1456370,0.54645853,84.7494,03/16.0/2024,2000,g 16.8,4.0
# From MPC105244
336P/McNaught,e,17.8250,298.2167,308.6471,5.037757,0.0871662,0.44392942,227.1179,03/16.0/2024,2000,g 13.5,4.0
# From MPEC 2024-A43
337P/WISE,e,15.4649,105.3185,161.9611,3.295120,0.1647772,0.49854196,102.5486,03/16.0/2024,2000,g 17.0,4.0
# From MPEC 2023-J29
338P/McNaught,e,25.3867,9.7932,4.5731,3.891745,0.1283771,0.41212623,342.0299,03/16.0/2024,2000,g 12.0,4.0
# From MPC101101
339P/Gibbs,e,5.7331,27.4768,172.6962,3.700364,0.1384642,0.63566065,27.4251,03/16.0/2024,2000,g 17.0,4.0
# From MPC133426
340P/Boattini,e,2.0784,291.6707,36.0477,4.248988,0.1125319,0.28039133,300.2296,03/16.0/2024,2000,g 14.3,4.0
# From MPEC 2023-J29
341P/Gibbs,e,3.7966,29.9641,312.3254,4.288137,0.1109944,0.41547891,315.3150,03/16.0/2024,2000,g 12.5,4.0
# From MPC101101
342P/SOHO,e,11.6924,73.3160,27.6393,3.041129,0.1858454,0.98290717,0.0000,10/19.3882/2021,2000,g  9.0,4.0
# From MPEC 2023-J29
343P/NEAT-LONEOS,e,5.5960,257.0653,137.5725,5.457476,0.0773065,0.58525342,200.9045,03/16.0/2024,2000,g 14.0,4.0
# From MPEC 2023-J29
344P/Read,e,3.4983,273.1015,140.5436,4.857988,0.0920491,0.42373181,247.2014,03/16.0/2024,2000,g 13.0,4.0
# From MPEC 2022-K19
345P/LINEAR,e,2.7280,154.5951,196.6571,4.031918,0.1217409,0.22127306,339.5587,03/16.0/2024,2000,g 12.0,4.0
# From MPEC 2022-K19
346P/Catalina,e,22.2159,102.4542,336.0083,4.470907,0.1042583,0.50379041,269.4844,03/16.0/2024,2000,g 14.0,4.0
# From MPEC 2023-XP6
347P/PANSTARRS,e,11.7607,260.9876,98.3825,3.607170,0.1438647,0.38685670,34.5454,03/16.0/2024,2000,g 15.0,4.0
# From MPEC 2022-ED3
348P/PANSTARRS,e,17.7373,312.9343,135.7074,3.151940,0.1761315,0.30733447,134.2365,03/16.0/2024,2000,g 14.0,4.0
# From MPEC 2024-EF7
349P/Lemmon,e,5.4884,331.7526,255.7956,3.578397,0.1456033,0.29854579,349.4951,03/16.0/2024,2000,g 14.0,4.0
# From MPC111775
350P/McNaught,e,7.3639,65.2934,139.9121,4.081657,0.1195224,0.09432984,272.6626,03/16.0/2024,2000,g 14.0,4.0
# From MPC105244
351P/Wiegert-PANSTARRS,e,12.7760,352.6826,283.3296,4.440545,0.1053294,0.29480177,320.4509,03/16.0/2024,2000,g 12.5,4.0
# From MPEC 2023-J29
352P/Skiff,e,21.0132,28.0078,309.4048,6.651650,0.0574526,0.61696427,141.2995,03/16.0/2024,2000,g 13.2,4.0
# From MPEC 2020-AA5
353P/McNaught,e,28.4165,121.5340,230.4843,4.170652,0.1157173,0.47003334,263.1148,03/16.0/2024,2000,g 14.5,4.0
# From MPEC 2024-EF7
354P/LINEAR,e,5.2511,320.0720,132.7802,2.289697,0.2844704,0.12448311,43.8457,03/16.0/2024,2000,g 15.5,4.0
# From MPEC 2023-CD7
355P/LINEAR-NEAT,e,11.0472,51.4341,336.3333,3.469364,0.1525209,0.50804389,357.4971,03/16.0/2024,2000,g 15.5,2.0
# From MPEC 2022-F14
356P/WISE,e,9.6401,160.8147,226.1213,4.154729,0.1163831,0.35607179,264.8041,03/16.0/2024,2000,g 14.0,4.0
# From MPC114609
357P/Hill,e,6.3147,44.5808,1.4405,4.456306,0.1047711,0.43611941,221.4865,03/16.0/2024,2000,g 15.5,4.0
# From MPEC 2024-EF7
358P/PANSTARRS,e,11.0633,85.6679,299.6379,3.149856,0.1763064,0.23977780,22.2943,03/16.0/2024,2000,g 18.0,4.0
# From MPC110086
359P/LONEOS,e,10.2642,149.7757,200.2901,4.641127,0.0985755,0.32364398,236.2017,03/16.0/2024,2000,g 13.5,4.0
# From MPC108599
360P/WISE,e,24.1083,2.2144,354.2311,3.697504,0.1386249,0.49918978,332.0354,03/16.0/2024,2000,g 19.5,6.0
# From MPEC 2023-CD7
361P/Spacewatch,e,13.9027,203.2562,219.0492,4.933774,0.0899363,0.43952137,187.0879,03/16.0/2024,2000,g 12.0,4.0
# From MPEC 2017-V13
362P/,e,15.5552,192.4952,53.5471,3.973517,0.1244347,0.27870538,344.2941,03/16.0/2024,2000,g 12.9,2.0
# From MPC114609
